[{"OBJECT_NAME":"STARLINK-3931","OBJECT_ID":"2022-051R","EPOCH":"2026-03-09T11:02:11.529888","MEAN_MOTION":15.0876517,"ECCENTRICITY":0.00019383,"INCLINATION":53.217,"RA_OF_ASC_NODE":130.1527,"ARG_OF_PERICENTER":100.2735,"MEAN_ANOMALY":259.8475,"EPHEMERIS_TYPE":0,"CLASSIFICATION_TYPE":"U","NORAD_CAT_ID":52548,"ELEMENT_SET_NO":999,"REV_AT_EPOCH":21141,"BSTAR":0.00086497557,"MEAN_MOTION_DOT":0.00013477,"MEAN_MOTION_DDOT":0},{"OBJECT_NAME":"CZ-6A DEB","OBJECT_ID":"2024-140PS","EPOCH":"2026-03-09T14:06:57.647808","MEAN_MOTION":14.7419151,"ECCENTRICITY":0.0174551,"INCLINATION":88.9937,"RA_OF_ASC_NODE":280.0508,"ARG_OF_PERICENTER":181.2195,"MEAN_ANOMALY":178.8626,"EPHEMERIS_TYPE":0,"CLASSIFICATION_TYPE":"U","NORAD_CAT_ID":61124,"ELEMENT_SET_NO":999,"REV_AT_EPOCH":8308,"BSTAR":0.00056687,"MEAN_MOTION_DOT":4.809e-5,"MEAN_MOTION_DDOT":0}]
